IDEFIX & ARIANE 42P R/B 
1 27422U 02021B   22270.08400004  .00000181  00000+0  87714-4 0  9991
2 27422  98.4567 213.0638 0011197 300.9548  59.0533 14.29452142 62073
AQUA                    
1 27424U 02022A   22270.53146091  .00000610  00000+0  14468-3 0  9999
2 27424  98.2537 211.4870 0000823  63.5904  59.6729 14.57398831 85097
CZ-4B R/B               
1 27432U 02024C   22269.87044013  .00000012  00000+0  30227-4 0  9994
2 27432  99.0566 296.3885 0050204 351.5747 182.3780 14.14152780 51153
MIDORI II (ADEOS-II)    
1 27597U 02056A   22270.44999219  .00000185  00000+0  92776-4 0  9991
2 27597  98.6136 212.8236 0002102  78.7566 281.3851 14.27649817 30508
H-2A R/B                
1 27601U 02056E   22269.79024270  .00000227  00000+0  96874-4 0  9999
2 27601  98.1807 270.6871 0071180 319.8459  83.2674 14.32114436 33665
CZ-4B R/B               
1 28059U 03049C   22270.44357670  .00000253  00000+0  72193-4 0  9994
2 28059  98.5250 208.8755 0050991 115.1838 245.4657 14.52834242  3608
CZ-2C R/B               
1 28222U 04012C   22270.53543119  .00005182  00000+0  28828-3 0  9993
2 28222  97.7820 253.3611 0045945  63.8801  50.4599 15.13217263 11707
SL-16 R/B               
1 28353U 04021B   22270.48648381  .00000348  00000+0  20728-3 0  9999
2 28353  71.0038 354.2785 0004533 175.2974 184.8191 14.14277398944786
CZ-4B R/B               
1 28415U 04035C   22269.82486172  .00002032  00000+0  13068-3 0  9998
2 28415  97.5071 308.0604 0050592  34.3326 326.1155 15.08486646988875
CZ-2C R/B               
1 28480U 04046B   22270.22399845  .00000139  00000+0  68376-4 0  9997
2 28480  98.0752 249.9969 0140408 280.9175  77.6235 14.25861980928959
ARIANE 5 R/B            
1 28499U 04049H   22270.32486667  .00000773  00000+0  10101-3 0  9996
2 28499  98.1078  28.0515 0092579 105.2407 311.6776 14.80534256959191
CZ-2D R/B               
1 28738U 05024B   22269.98492374  .00003152  00000+0  17504-3 0  9996
2 28738  97.3535 274.6489 0011285 176.3817 183.7499 15.14384834947138
SUZAKU (ASTRO-EII)      
1 28773U 05025A   22269.92498177  .00005712  00000+0  23932-3 0  9993
2 28773  31.3812 358.0600 0003864 316.3718  43.6625 15.22043510950473
ALOS (DAICHI)           
1 28931U 06002A   22270.40349812  .00000638  00000+0  13236-3 0  9999
2 28931  97.9458 231.5088 0001942  34.1083 326.0234 14.63307431889332
H-2A R/B                
1 28932U 06002B   22270.15069529  .00003236  00000+0  28850-3 0  9991
2 28932  98.2814 318.1625 0087362 117.9615 243.0480 14.93873892905324
AKARI (ASTRO-F)         
1 28939U 06005A   22269.26851813  .00026158  00000+0  42130-3 0  9991
2 28939  98.1906 356.0230 0061987 274.5840  84.8331 15.50717063908689
CZ-4B R/B               
1 29093U 06015B   22270.13959021  .00037500  00000+0  38167-3 0  9990
2 29093  97.5833 136.9730 0034689 163.6796 196.5589 15.64274241915528
RESURS-DK 1             
1 29228U 06021A   22269.62144507  .00001251  00000+0  98898-4 0  9996
2 29228  69.9345 231.1483 0007616 267.8833  92.1456 15.03433336897585
GENESIS 1               
1 29252U 06029A   22269.65006212  .00003989  00000+0  17946-3 0  9998
2 29252  64.5208  98.6040 0054885 246.6941 112.8403 15.21377441894360
CZ-4B R/B               
1 29507U 06046C   22269.87169513  .00001031  00000+0  81944-4 0  9994
2 29507  97.7226 299.5396 0041963 249.0381 110.6351 15.02085380870094
CZ-2C R/B               
1 31114U 07010B   22270.06117794  .00000126  00000+0  77523-4 0  9992
2 31114  98.2505  76.1943 0059697   2.7925 357.3574 14.19450450800984
COSMO-SKYMED 1          
1 31598U 07023A   22270.41030094  .00000591  00000+0  80773-4 0  9995
2 31598  97.8896  92.6171 0001438  94.8372 265.3037 14.82157331828065
GENESIS 2               
1 31789U 07028A   22269.99355961  .00003763  00000+0  17508-3 0  9995
2 31789  64.4952 140.9119 0055965 299.4115  60.1429 15.20289827841397
COSMOS 2428             
1 31792U 07029A   22270.38972789 -.00000022  00000+0  14107-4 0  9997
2 31792  70.9546 326.0428 0011370 252.3657 107.6222 14.12600316786322
SL-16 R/B               
1 31793U 07029B   22270.44209595 -.00000075  00000+0 -14300-4 0  9997
2 31793  70.9740 298.6071 0001910 266.2222 192.2662 14.14478780787372
KORONAS-FOTON           
1 33504U 09003A   22270.14699066  .00002531  00000+0  12388-3 0  9996
2 33504  82.4380 114.4518 0016766 279.5219  80.4119 15.17636319753513
H-2A R/B                
1 38341U 12025E   22269.69386828  .00000900  00000+0  11037-3 0  9993
2 38341  98.4912 131.6383 0055828  81.1907 279.5622 14.84885362560679
CUSAT 2 & FALCON 9 R/B  
1 39271U 13055G   22270.52478610  .00037169  00000+0  77896-3 0  9997
2 39271  80.9529  82.4657 0512728 162.2433 199.7461 14.66888590471717
SHIJIAN-16 (SJ-16)      
1 39358U 13057A   22270.48758529  .00000724  00000+0  85134-4 0  9992
2 39358  74.9753  36.8805 0019619 274.1455  85.7489 14.86294383484150
CZ-2C R/B               
1 39364U 13059B   22269.71753578  .00007354  00000+0  22839-3 0  9992
2 39364  97.1492 319.6485 0040167 331.4058  28.4981 15.32848271495716
SL-4 R/B                
1 39679U 14021B   22269.83525626  .00004715  00000+0  23007-3 0  9991
2 39679  51.6146 203.6448 0162760 311.2523  47.4521 15.09342656464429
ALOS-2                  
1 39766U 14029A   22270.39521723 -.00000290  00000+0 -31971-4 0  9999
2 39766  97.9219   6.0638 0001414  98.4106 261.7257 14.79469585450705
CZ-2C R/B               
1 40306U 14071B   22270.40313645  .00090270  00000+0  71543-3 0  9995
2 40306  97.4242 249.6459 0007626  19.0672 341.0874 15.70993272442886
SL-27 R/B               
1 40354U 14084B   22269.86148545  .00006639  00000+0  13867-3 0  9996
2 40354  74.7347 104.0672 0034525 231.5902 128.2211 15.45000346436256
YAOGAN-29               
1 41038U 15069A   22270.37494579  .00000317  00000+0  47913-4 0  9996
2 41038  98.0607 271.0666 0002189 103.5295 256.6165 14.80929348369378
ASTRO-H (HITOMI)        
1 41337U 16012A   22269.91277103  .00001376  00000+0  10235-3 0  9999
2 41337  31.0041 135.5878 0012144  10.1761 349.9118 14.99617157362369
HXMT (HUIYAN)           
1 42758U 17034A   22270.18199681  .00002764  00000+0  17595-3 0  9995
2 42758  43.0166 148.6591 0009034 207.3553 296.4791 15.10924444291568
CZ-2C R/B               
1 43521U 18054D   22269.79041382  .00003587  00000+0  18104-3 0  9997
2 43521  35.1523  89.5219 0078730 260.8445  98.3356 15.13914424235046
AEOLUS                  
1 43600U 18066A   22270.46968445  .00096543  00000+0  37228-3 0  9994
2 43600  96.7003 274.5894 0008756  88.6767 271.5509 15.86988756237304
SAOCOM 1A               
1 43641U 18076A   22270.41873197 -.00001034  00000+0 -12334-3 0  9998
2 43641  97.8895  95.6634 0001284  71.6476 288.4819 14.82145336214830
SAOCOM 1B               
1 46265U 20059A   22270.44988592 -.00001463  00000+0 -17727-3 0  9993
2 46265  97.8894  94.7553 0001622  80.5514 279.5889 14.82140651112236
CSS (TIANHE)            
1 48274U 21035A   22270.40933497  .00011927  00000+0  13257-3 0  9998
2 48274  41.4721 316.0388 0004271  32.9446  87.0175 15.62729459 80755
2022-019U               
1 51842U 22019U   22270.47093788  .00008399  00000+0  32029-3 0  9990
2 51842  97.5528 348.8502 0066907 189.4931 269.2900 15.24831142 32320
SZ-13 MODULE            
1 52260U 21092C   22270.30377066  .00043995  00000+0  30918-3 0  9997
2 52260  41.4792 305.6168 0010628 148.1617 211.9870 15.73259525 25412
CZ-2C R/B               
1 52794U 22058K   22269.53989209  .00004158  00000+0  23194-3 0  9999
2 52794  50.1728  60.2398 0102730 139.9027 220.9565 15.11347287 17572
